{
  "type": "FeatureCollection",
  "features": [
    {
      "type": "Feature",
      "properties": {
        "norad_id": 29914,
        "name": "FENGYUN 1C DEB",
        "group": "fengyun-1c-debris",
        "lat": -81.14520644403349,
        "lon": 121.32087375895291,
        "alt_km": 916.2114711022168,
        "timestamp": "2025-12-26T19:22:39.179048+00:00",
        "meta_object_name": "FENGYUN 1C DEB",
        "meta_object_id": "1999-025HL",
        "meta_epoch": "2025-12-26T15:14:42.516384",
        "meta_mean_motion": 14.03132767,
        "meta_eccentricity": 0.00366061,
        "meta_inclination": 98.8421,
        "meta_ra_of_asc_node": 28.8184,
        "meta_arg_of_pericenter": 77.302,
        "meta_mean_anomaly": 43.1644,
        "meta_ephemeris_type": 0,
        "meta_classification_type": "U",
        "meta_norad_cat_id": 29914,
        "meta_element_set_no": 999,
        "meta_rev_at_epoch": 96981,
        "meta_bstar": 1.0304238e-05,
        "meta_mean_motion_dot": -2.6e-07,
        "meta_mean_motion_ddot": 0,
        "tle_line1": "1 29914U 99025HL  25360.63521431 -.00000026  00000+0  10304-4 0  9991",
        "tle_line2": "2 29914  98.8421  28.8184 0036606  77.3020  43.1644 14.03132767969819"
      },
      "geometry": {
        "type": "Point",
        "coordinates": [
          121.32087375895291,
          -81.14520644403349
        ]
      }
    },
    {
      "type": "Feature",
      "properties": {
        "norad_id": 29916,
        "name": "FENGYUN 1C DEB",
        "group": "fengyun-1c-debris",
        "lat": 79.82493388300573,
        "lon": -96.3878286384935,
        "alt_km": 1160.3257183845735,
        "timestamp": "2025-12-26T19:22:39.179058+00:00",
        "meta_object_name": "FENGYUN 1C DEB",
        "meta_object_id": "1999-025HN",
        "meta_epoch": "2025-12-26T14:13:43.872096",
        "meta_mean_motion": 13.56999865,
        "meta_eccentricity": 0.02715673,
        "meta_inclination": 99.1936,
        "meta_ra_of_asc_node": 18.9471,
        "meta_arg_of_pericenter": 223.0588,
        "meta_mean_anomaly": 266.3101,
        "meta_ephemeris_type": 0,
        "meta_classification_type": "U",
        "meta_norad_cat_id": 29916,
        "meta_element_set_no": 999,
        "meta_rev_at_epoch": 93640,
        "meta_bstar": 0.00061267213,
        "meta_mean_motion_dot": 5.11e-06,
        "meta_mean_motion_ddot": 0,
        "tle_line1": "1 29916U 99025HN  25360.59286889  .00000511  00000+0  61267-3 0  9994",
        "tle_line2": "2 29916  99.1936  18.9471 0271567 223.0588 266.3101 13.56999865936404"
      },
      "geometry": {
        "type": "Point",
        "coordinates": [
          -96.3878286384935,
          79.82493388300573
        ]
      }
    },
    {
      "type": "Feature",
      "properties": {
        "norad_id": 29917,
        "name": "FENGYUN 1C DEB",
        "group": "fengyun-1c-debris",
        "lat": 30.46002393659158,
        "lon": 46.65155309169648,
        "alt_km": 915.8453249002077,
        "timestamp": "2025-12-26T19:22:39.179068+00:00",
        "meta_object_name": "FENGYUN 1C DEB",
        "meta_object_id": "1999-025HP",
        "meta_epoch": "2025-12-26T13:44:25.428192",
        "meta_mean_motion": 13.70448992,
        "meta_eccentricity": 0.02236237,
        "meta_inclination": 98.8765,
        "meta_ra_of_asc_node": 221.1614,
        "meta_arg_of_pericenter": 87.6947,
        "meta_mean_anomaly": 340.9028,
        "meta_ephemeris_type": 0,
        "meta_classification_type": "U",
        "meta_norad_cat_id": 29917,
        "meta_element_set_no": 999,
        "meta_rev_at_epoch": 94320,
        "meta_bstar": 0.0014287759,
        "meta_mean_motion_dot": 1.471e-05,
        "meta_mean_motion_ddot": 0,
        "tle_line1": "1 29917U 99025HP  25360.57251653  .00001471  00000+0  14288-2 0  9990",
        "tle_line2": "2 29917  98.8765 221.1614 0223623  87.6947 340.9028 13.70448992943200"
      },
      "geometry": {
        "type": "Point",
        "coordinates": [
          46.65155309169648,
          30.46002393659158
        ]
      }
    },
    {
      "type": "Feature",
      "properties": {
        "norad_id": 29918,
        "name": "FENGYUN 1C DEB",
        "group": "fengyun-1c-debris",
        "lat": -65.79182637095923,
        "lon": 103.85132843562207,
        "alt_km": 777.3978270544321,
        "timestamp": "2025-12-26T19:22:39.179079+00:00",
        "meta_object_name": "FENGYUN 1C DEB",
        "meta_object_id": "1999-025HQ",
        "meta_epoch": "2025-12-26T04:52:12.261216",
        "meta_mean_motion": 14.3370172,
        "meta_eccentricity": 0.00136675,
        "meta_inclination": 98.8531,
        "meta_ra_of_asc_node": 82.9495,
        "meta_arg_of_pericenter": 273.9828,
        "meta_mean_anomaly": 140.491,
        "meta_ephemeris_type": 0,
        "meta_classification_type": "U",
        "meta_norad_cat_id": 29918,
        "meta_element_set_no": 999,
        "meta_rev_at_epoch": 97987,
        "meta_bstar": 0.0015462253,
        "meta_mean_motion_dot": 4.251e-05,
        "meta_mean_motion_ddot": 0,
        "tle_line1": "1 29918U 99025HQ  25360.20291969  .00004251  00000+0  15462-2 0  9999",
        "tle_line2": "2 29918  98.8531  82.9495 0013667 273.9828 140.4910 14.33701720979871"
      },
      "geometry": {
        "type": "Point",
        "coordinates": [
          103.85132843562207,
          -65.79182637095923
        ]
      }
    },
    {
      "type": "Feature",
      "properties": {
        "norad_id": 29919,
        "name": "FENGYUN 1C DEB",
        "group": "fengyun-1c-debris",
        "lat": -52.74571233663067,
        "lon": 165.21074708377597,
        "alt_km": 852.4581359475387,
        "timestamp": "2025-12-26T19:22:39.179089+00:00",
        "meta_object_name": "FENGYUN 1C DEB",
        "meta_object_id": "1999-025HR",
        "meta_epoch": "2025-12-26T09:22:00.077952",
        "meta_mean_motion": 13.85128923,
        "meta_eccentricity": 0.01368556,
        "meta_inclination": 98.4799,
        "meta_ra_of_asc_node": 153.5211,
        "meta_arg_of_pericenter": 306.2623,
        "meta_mean_anomaly": 81.3795,
        "meta_ephemeris_type": 0,
        "meta_classification_type": "U",
        "meta_norad_cat_id": 29919,
        "meta_element_set_no": 999,
        "meta_rev_at_epoch": 95724,
        "meta_bstar": 0.00019554599,
        "meta_mean_motion_dot": 1.99e-06,
        "meta_mean_motion_ddot": 0,
        "tle_line1": "1 29919U 99025HR  25360.39027868  .00000199  00000+0  19555-3 0  9990",
        "tle_line2": "2 29919  98.4799 153.5211 0136855 306.2623  81.3795 13.85128923957248"
      },
      "geometry": {
        "type": "Point",
        "coordinates": [
          165.21074708377597,
          -52.74571233663067
        ]
      }
    },
    {
      "type": "Feature",
      "properties": {
        "norad_id": 29920,
        "name": "FENGYUN 1C DEB",
        "group": "fengyun-1c-debris",
        "lat": 40.929986437928925,
        "lon": -153.12362802743587,
        "alt_km": 963.0777681815453,
        "timestamp": "2025-12-26T19:22:39.179099+00:00",
        "meta_object_name": "FENGYUN 1C DEB",
        "meta_object_id": "1999-025HS",
        "meta_epoch": "2025-12-21T12:34:58.800288",
        "meta_mean_motion": 14.03693596,
        "meta_eccentricity": 0.01249732,
        "meta_inclination": 98.3912,
        "meta_ra_of_asc_node": 209.3515,
        "meta_arg_of_pericenter": 255.9523,
        "meta_mean_anomaly": 102.7727,
        "meta_ephemeris_type": 0,
        "meta_classification_type": "U",
        "meta_norad_cat_id": 29920,
        "meta_element_set_no": 999,
        "meta_rev_at_epoch": 96411,
        "meta_bstar": 0.0011522683,
        "meta_mean_motion_dot": 1.901e-05,
        "meta_mean_motion_ddot": 0,
        "tle_line1": "1 29920U 99025HS  25355.52429167  .00001901  00000+0  11523-2 0  9997",
        "tle_line2": "2 29920  98.3912 209.3515 0124973 255.9523 102.7727 14.03693596964111"
      },
      "geometry": {
        "type": "Point",
        "coordinates": [
          -153.12362802743587,
          40.929986437928925
        ]
      }
    },
    {
      "type": "Feature",
      "properties": {
        "norad_id": 29921,
        "name": "FENGYUN 1C DEB",
        "group": "fengyun-1c-debris",
        "lat": 26.239569849850657,
        "lon": 2.1453290822962496,
        "alt_km": 836.5262219456099,
        "timestamp": "2025-12-26T19:22:39.179109+00:00",
        "meta_object_name": "FENGYUN 1C DEB",
        "meta_object_id": "1999-025HT",
        "meta_epoch": "2025-12-25T13:07:24.072096",
        "meta_mean_motion": 14.06658608,
        "meta_eccentricity": 0.0046026,
        "meta_inclination": 98.7868,
        "meta_ra_of_asc_node": 5.2936,
        "meta_arg_of_pericenter": 34.238,
        "meta_mean_anomaly": 92.4154,
        "meta_ephemeris_type": 0,
        "meta_classification_type": "U",
        "meta_norad_cat_id": 29921,
        "meta_element_set_no": 999,
        "meta_rev_at_epoch": 97056,
        "meta_bstar": 0.00047727,
        "meta_mean_motion_dot": 7.57e-06,
        "meta_mean_motion_ddot": 0,
        "tle_line1": "1 29921U 99025HT  25359.54680639  .00000757  00000+0  47727-3 0  9991",
        "tle_line2": "2 29921  98.7868   5.2936 0046026  34.2380  92.4154 14.06658608970560"
      },
      "geometry": {
        "type": "Point",
        "coordinates": [
          2.1453290822962496,
          26.239569849850657
        ]
      }
    }
  ]
}